{
  "type": "FeatureCollection",
  "features": [
    {
      "type": "Feature",
      "properties": {
        "norad_id": 57400,
        "name": "TIANMU-1 08",
        "group": "weather",
        "lat": -0.027306173102197684,
        "lon": -139.08301805970396,
        "alt_km": 486.19815105583257,
        "timestamp": "2025-12-17T09:00:16.788461+00:00",
        "meta_object_name": "TIANMU-1 08",
        "meta_object_id": "2023-101B",
        "meta_epoch": "2025-12-16T22:47:27.970656",
        "meta_mean_motion": 15.28115804,
        "meta_eccentricity": 0.00074031,
        "meta_inclination": 97.2866,
        "meta_ra_of_asc_node": 40.5043,
        "meta_arg_of_pericenter": 72.2992,
        "meta_mean_anomaly": 287.9055,
        "meta_ephemeris_type": 0,
        "meta_classification_type": "U",
        "meta_norad_cat_id": 57400,
        "meta_element_set_no": 999,
        "meta_rev_at_epoch": 13379,
        "meta_bstar": 0.00022163325,
        "meta_mean_motion_dot": 6.007e-05,
        "meta_mean_motion_ddot": 0,
        "tle_line1": "1 57400U 23101B   25350.94962929  .00006007  00000+0  22163-3 0  9997",
        "tle_line2": "2 57400  97.2866  40.5043 0007403  72.2992 287.9055 15.28115804133791"
      },
      "geometry": {
        "type": "Point",
        "coordinates": [
          -139.08301805970396,
          -0.027306173102197684
        ]
      }
    },
    {
      "type": "Feature",
      "properties": {
        "norad_id": 57401,
        "name": "TIANMU-1 09",
        "group": "weather",
        "lat": -71.56174809205771,
        "lon": -162.12318169617566,
        "alt_km": 493.2196654606041,
        "timestamp": "2025-12-17T09:00:16.788477+00:00",
        "meta_object_name": "TIANMU-1 09",
        "meta_object_id": "2023-101C",
        "meta_epoch": "2025-12-16T22:28:18.924096",
        "meta_mean_motion": 15.28147361,
        "meta_eccentricity": 0.00066561,
        "meta_inclination": 97.2823,
        "meta_ra_of_asc_node": 40.0024,
        "meta_arg_of_pericenter": 72.4784,
        "meta_mean_anomaly": 287.7183,
        "meta_ephemeris_type": 0,
        "meta_classification_type": "U",
        "meta_norad_cat_id": 57401,
        "meta_element_set_no": 999,
        "meta_rev_at_epoch": 13379,
        "meta_bstar": 0.00022326081,
        "meta_mean_motion_dot": 6.056e-05,
        "meta_mean_motion_ddot": 0,
        "tle_line1": "1 57401U 23101C   25350.93633014  .00006056  00000+0  22326-3 0  9992",
        "tle_line2": "2 57401  97.2823  40.0024 0006656  72.4784 287.7183 15.28147361133792"
      },
      "geometry": {
        "type": "Point",
        "coordinates": [
          -162.12318169617566,
          -71.56174809205771
        ]
      }
    },
    {
      "type": "Feature",
      "properties": {
        "norad_id": 57402,
        "name": "TIANMU-1 10",
        "group": "weather",
        "lat": 63.74217928006203,
        "lon": 26.2448507820216,
        "alt_km": 469.4293714904643,
        "timestamp": "2025-12-17T09:00:16.788493+00:00",
        "meta_object_name": "TIANMU-1 10",
        "meta_object_id": "2023-101D",
        "meta_epoch": "2025-12-16T23:17:36.932640",
        "meta_mean_motion": 15.28139314,
        "meta_eccentricity": 0.00084108,
        "meta_inclination": 97.2904,
        "meta_ra_of_asc_node": 40.8902,
        "meta_arg_of_pericenter": 71.279,
        "meta_mean_anomaly": 288.9362,
        "meta_ephemeris_type": 0,
        "meta_classification_type": "U",
        "meta_norad_cat_id": 57402,
        "meta_element_set_no": 999,
        "meta_rev_at_epoch": 13379,
        "meta_bstar": 0.00023040843,
        "meta_mean_motion_dot": 6.253e-05,
        "meta_mean_motion_ddot": 0,
        "tle_line1": "1 57402U 23101D   25350.97056635  .00006253  00000+0  23041-3 0  9999",
        "tle_line2": "2 57402  97.2904  40.8902 0008410  71.2790 288.9362 15.28139314133791"
      },
      "geometry": {
        "type": "Point",
        "coordinates": [
          26.2448507820216,
          63.74217928006203
        ]
      }
    },
    {
      "type": "Feature",
      "properties": {
        "norad_id": 57490,
        "name": "FENGYUN 3F",
        "group": "weather",
        "lat": -37.980919482930084,
        "lon": 66.46601501754633,
        "alt_km": 832.496109368637,
        "timestamp": "2025-12-17T09:00:16.788510+00:00",
        "meta_object_name": "FENGYUN 3F",
        "meta_object_id": "2023-111A",
        "meta_epoch": "2025-12-17T00:43:46.438176",
        "meta_mean_motion": 14.19894686,
        "meta_eccentricity": 7.08e-05,
        "meta_inclination": 98.7079,
        "meta_ra_of_asc_node": 59.2545,
        "meta_arg_of_pericenter": 108.6853,
        "meta_mean_anomaly": 251.44,
        "meta_ephemeris_type": 0,
        "meta_classification_type": "U",
        "meta_norad_cat_id": 57490,
        "meta_element_set_no": 999,
        "meta_rev_at_epoch": 12301,
        "meta_bstar": 5.0331292e-05,
        "meta_mean_motion_dot": 6.3e-07,
        "meta_mean_motion_ddot": 0,
        "tle_line1": "1 57490U 23111A   25351.03039859  .00000063  00000+0  50331-4 0  9990",
        "tle_line2": "2 57490  98.7079  59.2545 0000708 108.6853 251.4400 14.19894686123012"
      },
      "geometry": {
        "type": "Point",
        "coordinates": [
          66.46601501754633,
          -37.980919482930084
        ]
      }
    },
    {
      "type": "Feature",
      "properties": {
        "norad_id": 58584,
        "name": "ARKTIKA-M 2",
        "group": "weather",
        "lat": 42.33785602274922,
        "lon": -158.2179651152222,
        "alt_km": 23683.3006949773,
        "timestamp": "2025-12-17T09:00:16.788529+00:00",
        "meta_object_name": "ARKTIKA-M 2",
        "meta_object_id": "2023-198A",
        "meta_epoch": "2025-12-15T07:41:54.278304",
        "meta_mean_motion": 2.00603484,
        "meta_eccentricity": 0.68650912,
        "meta_inclination": 63.2249,
        "meta_ra_of_asc_node": 174.6089,
        "meta_arg_of_pericenter": 268.096,
        "meta_mean_anomaly": 18.8351,
        "meta_ephemeris_type": 0,
        "meta_classification_type": "U",
        "meta_norad_cat_id": 58584,
        "meta_element_set_no": 999,
        "meta_rev_at_epoch": 1463,
        "meta_bstar": 0,
        "meta_mean_motion_dot": 2.02e-06,
        "meta_mean_motion_ddot": 0,
        "tle_line1": "1 58584U 23198A   25349.32076711  .00000202  00000+0  00000+0 0  9995",
        "tle_line2": "2 58584  63.2249 174.6089 6865091 268.0960  18.8351  2.00603484 14636"
      },
      "geometry": {
        "type": "Point",
        "coordinates": [
          -158.2179651152222,
          42.33785602274922
        ]
      }
    },
    {
      "type": "Feature",
      "properties": {
        "norad_id": 58645,
        "name": "TIANMU-1 11",
        "group": "weather",
        "lat": -5.871284106359774,
        "lon": -169.84420993629416,
        "alt_km": 497.03676537151114,
        "timestamp": "2025-12-17T09:00:16.788547+00:00",
        "meta_object_name": "TIANMU-1 11",
        "meta_object_id": "2023-205A",
        "meta_epoch": "2025-12-17T00:18:57.100032",
        "meta_mean_motion": 15.24652888,
        "meta_eccentricity": 0.00076432,
        "meta_inclination": 97.3603,
        "meta_ra_of_asc_node": 10.5617,
        "meta_arg_of_pericenter": 292.4698,
        "meta_mean_anomaly": 67.573,
        "meta_ephemeris_type": 0,
        "meta_classification_type": "U",
        "meta_norad_cat_id": 58645,
        "meta_element_set_no": 999,
        "meta_rev_at_epoch": 10974,
        "meta_bstar": 0.00021837774,
        "meta_mean_motion_dot": 5.326e-05,
        "meta_mean_motion_ddot": 0,
        "tle_line1": "1 58645U 23205A   25351.01316088  .00005326  00000+0  21838-3 0  9993",
        "tle_line2": "2 58645  97.3603  10.5617 0007643 292.4698  67.5730 15.24652888109746"
      },
      "geometry": {
        "type": "Point",
        "coordinates": [
          -169.84420993629416,
          -5.871284106359774
        ]
      }
    },
    {
      "type": "Feature",
      "properties": {
        "norad_id": 58646,
        "name": "TIANMU-1 12",
        "group": "weather",
        "lat": 35.76819860942739,
        "lon": 5.379321730593134,
        "alt_km": 492.10354690681197,
        "timestamp": "2025-12-17T09:00:16.788563+00:00",
        "meta_object_name": "TIANMU-1 12",
        "meta_object_id": "2023-205B",
        "meta_epoch": "2025-12-17T00:58:13.567584",
        "meta_mean_motion": 15.24537399,
        "meta_eccentricity": 0.00057712,
        "meta_inclination": 97.359,
        "meta_ra_of_asc_node": 10.3926,
        "meta_arg_of_pericenter": 271.7872,
        "meta_mean_anomaly": 88.2705,
        "meta_ephemeris_type": 0,
        "meta_classification_type": "U",
        "meta_norad_cat_id": 58646,
        "meta_element_set_no": 999,
        "meta_rev_at_epoch": 10973,
        "meta_bstar": 0.00021012656,
        "meta_mean_motion_dot": 5.102e-05,
        "meta_mean_motion_ddot": 0,
        "tle_line1": "1 58646U 23205B   25351.04043481  .00005102  00000+0  21013-3 0  9998",
        "tle_line2": "2 58646  97.3590  10.3926 0005771 271.7872  88.2705 15.24537399109737"
      },
      "geometry": {
        "type": "Point",
        "coordinates": [
          5.379321730593134,
          35.76819860942739
        ]
      }
    }
  ]
}